[{"OBJECT_NAME":"STARLINK-36415","OBJECT_ID":"2026-012AC","EPOCH":"2026-03-09T02:05:18.273120","MEAN_MOTION":15.27547014,"ECCENTRICITY":0.00021174,"INCLINATION":43.0042,"RA_OF_ASC_NODE":317.4482,"ARG_OF_PERICENTER":279.6103,"MEAN_ANOMALY":80.451,"EPHEMERIS_TYPE":0,"CLASSIFICATION_TYPE":"U","NORAD_CAT_ID":67519,"ELEMENT_SET_NO":999,"REV_AT_EPOCH":767,"BSTAR":0.001305131,"MEAN_MOTION_DOT":0.00035791,"MEAN_MOTION_DDOT":0},{"OBJECT_NAME":"CZ-4B R\/B","OBJECT_ID":"2008-053C","EPOCH":"2026-03-09T16:52:55.405920","MEAN_MOTION":15.20774751,"ECCENTRICITY":0.00860777,"INCLINATION":97.7895,"RA_OF_ASC_NODE":133.277,"ARG_OF_PERICENTER":241.1085,"MEAN_ANOMALY":118.1494,"EPHEMERIS_TYPE":0,"CLASSIFICATION_TYPE":"U","NORAD_CAT_ID":33410,"ELEMENT_SET_NO":999,"REV_AT_EPOCH":94950,"BSTAR":0.00029822835,"MEAN_MOTION_DOT":7.181e-5,"MEAN_MOTION_DDOT":0}]
